ORBCOMM FM33            
1 25983U 99065D   24199.90474219  .00003327  00000+0  11365-2 0  9999
2 25983  45.0274 145.9560 0007157 185.7807 174.2960 14.37960855287911
ORBCOMM FM36            
1 25984U 99065E   24199.55719569  .00002647  00000+0  95322-3 0  9991
2 25984  45.0379 234.2613 0002246   7.6027 352.4854 14.35873676286282
ORBCOMM FM35            
1 25985U 99065F   24199.48184630  .00001685  00000+0  63062-3 0  9996
2 25985  45.0387 237.5064 0003219 203.6154 156.4546 14.35375245286669
ORBCOMM FM34            
1 25986U 99065G   24199.45361286  .00001217  00000+0  46945-3 0  9990
2 25986  45.0382 238.1865 0001388 125.9243 234.1733 14.35349927286773
ORBCOMM FM38            
1 33060U 08031A   24199.92497209  .00004500  00000+0  64548-3 0  9999
2 33060  48.4407 104.5604 0005263  46.3727 313.7623 14.77985943865243
ORBCOMM FM41            
1 33061U 08031B   24199.92514772  .00004589  00000+0  66192-3 0  9999
2 33061  48.4440 111.3429 0004471  31.1383  19.0011 14.77710264864745
ORBCOMM FM29            
1 33062U 08031C   24199.92294740  .00004970  00000+0  71522-3 0  9997
2 33062  48.4391 119.3879 0006384  29.4371  56.4561 14.77660205864654
ORBCOMM FM39            
1 33063U 08031D   24200.19066975  .00004295  00000+0  63734-3 0  9993
2 33063  48.4397 139.1714 0007507   4.7237 355.3747 14.76601548864802
